APRIZESAT 2             
1 28366U 04025A   26197.02136642  .00000087  00000+0  40031-4 0  9991
2 28366  98.1043   1.3730 0105989 162.3748 198.1163 14.38047877155783
SAUDICOMSAT 1           
1 28369U 04025D   26197.02689156  .00000131  00000+0  41482-4 0  9998
2 28369  98.5777 207.9374 0030976 296.2648  63.5367 14.55493893168328
SAUDICOMSAT 2           
1 28370U 04025E   26197.31483042  .00000084  00000+0  33873-4 0  9990
2 28370  98.6643 210.3847 0055698 170.2942 189.9341 14.49994668164322
APRIZESAT 1             
1 28372U 04025G   26197.31040991  .00000105  00000+0  37774-4 0  9992
2 28372  98.6310 208.8290 0045755  67.3683 293.2341 14.51792389166139
NANOSAT-1               
1 28493U 04049B   26196.89902771  .00000463  00000+0  68184-4 0  9993
2 28493  98.2310 334.2683 0003856 181.6105 178.5094 14.80211526159698
SAUDICOMSAT 7           
1 31119U 07012C   26196.91339582  .00000225  00000+0  49534-4 0  9996
2 31119  98.3798 171.6360 0056993 106.0928 254.6560 14.66136994 26648
SAUDICOMSAT 6           
1 31121U 07012E   26197.23420916  .00000149  00000+0  38581-4 0  9992
2 31121  98.4119 165.2949 0070566 235.8152 123.6346 14.62584918 24434
SAUDICOMSAT 5           
1 31124U 07012H   26197.18733492  .00000291  00000+0  58867-4 0  9992
2 31124  98.3511 172.6569 0048178  35.7723 324.6692 14.68192813 27858
SAUDICOMSAT 3           
1 31125U 07012J   26196.89340536  .00000343  00000+0  64471-4 0  9999
2 31125  98.3165 172.9033 0038228 322.9852  36.8717 14.70750290 29047
SAUDICOMSAT 4           
1 31127U 07012L   26196.91837688  .00000187  00000+0  44103-4 0  9999
2 31127  98.4004 170.0780 0063628 167.4767 192.8034 14.64535693 25490
APRIZESAT 4             
1 35684U 09041D   26197.18494482  .00000333  00000+0  46573-4 0  9992
2 35684  98.1404 273.0822 0042291 226.2484 133.5226 14.83914429915668
APRIZESAT 3             
1 35686U 09041F   26196.98810491  .00000765  00000+0  71213-4 0  9991
2 35686  98.2102 351.5983 0060765 333.2852  26.5241 14.96312357920682
S-NET D                 
1 43186U 18014G   26197.15875205  .00002432  00000+0  12677-3 0  9990
2 43186  97.5332 101.7697 0006204 280.7404  79.3131 15.16922087463155
S-NET B                 
1 43187U 18014H   26196.64304467  .00002463  00000+0  12848-3 0  9995
2 43187  97.5338 101.2446 0006841 276.7896  83.2558 15.16889958463073
S-NET A                 
1 43188U 18014J   26197.15746984  .00002441  00000+0  12718-3 0  9999
2 43188  97.5347 101.9704 0006697 275.6423  84.4047 15.16930379463150
S-NET C                 
1 43189U 18014K   26197.17480650  .00002207  00000+0  11548-3 0  9997
2 43189  97.5365 102.0665 0008078 266.1983  93.8327 15.16883030461705
SALSAT                  
1 46495U 20068K   26197.24901140  .00003822  00000+0  13369-3 0  9999
2 46495  97.8856 202.0925 0009321 188.9749 171.1325 15.30180346319806
OOV-CUBE (TUBSAT-30)    
1 60240U 24128F   26197.19853054  .00000923  00000+0  83086-4 0  9991
2 60240  61.9938 124.4033 0040980 140.2430 220.1678 15.02875959110472
LPNTSAT-001 (IOD-1)     
1 68408U 26065A   26197.20089919  .00001303  00000+0  65981-4 0  9997
2 68408  97.3979  77.0934 0014623 262.5127  97.4446 15.18671614 16666
CHUANG XIN 26 (CX-26)   
1 69972U 26158A   26194.51442212 -.00000212  00000+0 -21871-4 0  9997
2 69972  49.9860 287.5119 0004887 294.2352  65.8050 14.25122238   462
